NORAD_CAT_ID,OBJECT_NAME,OBJECT_TYPE,EPOCH,MEAN_MOTION,ECCENTRICITY,INCLINATION,RA_OF_ASC_NODE,ARG_OF_PERICENTER,MEAN_ANOMALY,BSTAR,MEAN_MOTION_DOT,MEAN_MOTION_DDOT,TLE_LINE0,TLE_LINE1,TLE_LINE2,SEMIMAJOR_AXIS,PERIOD,APOGEE,PERIGEE,DECAYED
52490.0,STARLINK-3914,PAYLOAD,2022-11-01 09:07:21,15.08839087,0.0001885999999999,53.2184,145.2664,56.5209,303.5963,0.00013143,1.804e-05,0.0,0 STARLINK-3914,1 52490U 22049AR  22305.38010790  .00001804  00000-0  13143-3 0  9995,2 52490  53.2184 145.2664 0001886  56.5209 303.5963 15.08839087 27561,6917.8830000000025,95.438,541.053,538.443,0.0
52490.0,STARLINK-3914,PAYLOAD,2022-11-01 15:28:54,15.08831899,0.0001836,53.2183,144.0769,56.3684,303.7483,1.8161e-06,-2.59e-06,0.0,0 STARLINK-3914,1 52490U 22049AR  22305.64507651 -.00000259  00000-0  18161-5 0  9992,2 52490  53.2183 144.0769 0001836  56.3684 303.7483 15.08831899 27767,6917.905,95.438,541.04,538.5,0.0
52490.0,STARLINK-3914,PAYLOAD,2022-11-02 08:58:08,15.08836783,0.0001699,53.2195,140.8069,43.3295,316.7831,6.3659e-05,7.25e-06,0.0,0 STARLINK-3914,1 52490U 22049AR  22306.37371274  .00000725  00000-0  63659-4 0  9991,2 52490  53.2195 140.8069 0001699  43.3295 316.7831 15.08836783 27711,6917.89,95.438,540.931,538.58,0.0
52490.0,STARLINK-3914,PAYLOAD,2022-11-02 20:05:51,15.08827282,0.0001561999999999,53.2194,138.7244,49.8943,310.2186,-3.9853e-06,-3.51e-06,0.0,0 STARLINK-3914,1 52490U 22049AR  22306.83740246 -.00000351  00000-0 -39853-5 0  9998,2 52490  53.2194 138.7244 0001562  49.8943 310.2186 15.08827282 27942,6917.919,95.438,540.865,538.7040000000002,0.0
52490.0,STARLINK-3914,PAYLOAD,2022-11-03 07:13:33,15.08835673,0.0001629,53.2188,136.6425,48.8186,311.2947,5.377e-06,-2.02e-06,0.0,0 STARLINK-3914,1 52490U 22049AR  22307.30107756 -.00000202  00000-0  53770-5 0  9992,2 52490  53.2188 136.6425 0001629  48.8186 311.2947 15.08835673 28013,6917.894,95.438,540.886,538.632,0.0
52490.0,STARLINK-3914,PAYLOAD,2022-11-03 21:32:01,15.08842465,0.0001821,53.2188,133.9665,53.0947,307.0212,0.00011677,1.571e-05,0.0,0 STARLINK-3914,1 52490U 22049AR  22307.89723452  .00001571  00000-0  11677-3 0  9990,2 52490  53.2188 133.9665 0001821  53.0947 307.0212 15.08842465 27942,6917.873000000001,95.437,540.998,538.4780000000002,0.0
52490.0,STARLINK-3914,PAYLOAD,2022-11-04 07:04:19,15.08854182,0.0001696,53.2188,132.1825,53.6936,306.4213,9.7969e-05,1.272e-05,0.0,0 STARLINK-3914,1 52490U 22049AR  22308.29466791  .00001272  00000-0  97969-4 0  9992,2 52490  53.2188 132.1825 0001696  53.6936 306.4213 15.08854182 28163,6917.837,95.437,540.875,538.529,0.0
52490.0,STARLINK-3914,PAYLOAD,2022-11-04 15:01:15,15.08844461,0.0001649,53.2193,130.6965,52.5815,307.5327,9.55e-05,1.232e-05,0.0,0 STARLINK-3914,1 52490U 22049AR  22308.62587366  .00001232  00000-0  95500-4 0  9996,2 52490  53.2193 130.6965 0001649  52.5815 307.5327 15.08844461 28212,6917.8669999999975,95.437,540.873,538.591,0.0
52490.0,STARLINK-3914,PAYLOAD,2022-11-05 06:55:06,15.08843364,0.0001804,53.2176,127.7225,56.5375,303.5789,0.00010702,1.416e-05,0.0,0 STARLINK-3914,1 52490U 22049AR  22309.28827352  .00001416  00000-0  10702-3 0  9995,2 52490  53.2176 127.7225 0001804  56.5375 303.5789 15.08843364 28159,6917.87,95.437,540.9830000000002,538.487,0.0
52490.0,STARLINK-3914,PAYLOAD,2022-11-05 18:02:49,15.08834633,0.0001724,53.2188,125.6407,58.1026,302.0134,1.0493e-05,-1.21e-06,0.0,0 STARLINK-3914,1 52490U 22049AR  22309.75196277 -.00000121  00000-0  10493-4 0  9993,2 52490  53.2188 125.6407 0001724  58.1026 302.0134 15.08834633 28385,6917.897,95.438,540.9540000000002,538.569,0.0
52490.0,STARLINK-3914,PAYLOAD,2022-11-06 11:32:03,15.08842132,0.0001883,53.2186,122.3696,56.7287,303.3885,7.1506e-05,8.5e-06,0.0,0 STARLINK-3914,1 52490U 22049AR  22310.48059519  .00000850  00000-0  71506-4 0  9992,2 52490  53.2186 122.3696 0001883  56.7287 303.3885 15.08842132 28498,6917.874,95.437,541.0419999999998,538.436,0.0
52490.0,STARLINK-3914,PAYLOAD,2022-11-07 11:22:50,15.08834398,0.0001872,53.2191,117.91,53.6726,306.4439,0.00010138,1.325e-05,0.0,0 STARLINK-3914,1 52490U 22049AR  22311.47420009  .00001325  00000-0  10138-3 0  9999,2 52490  53.2191 117.9100 0001872  53.6726 306.4439 15.08834398 28647,6917.898,95.438,541.058,538.467,0.0
52490.0,STARLINK-3914,PAYLOAD,2022-11-07 17:44:23,15.0883757,0.0001739,53.2191,116.7197,56.3087,303.8071,0.00011452,1.535e-05,0.0,0 STARLINK-3914,1 52490U 22049AR  22311.73915833  .00001535  00000-0  11452-3 0  9995,2 52490  53.2191 116.7197 0001739  56.3087 303.8071 15.08837570 28527,6917.888000000001,95.438,540.956,538.55,0.0
52490.0,STARLINK-3914,PAYLOAD,2022-11-08 06:27:27,15.08848447,0.0001822,53.2192,114.3415,54.5018,305.6144,0.00014238,1.979e-05,0.0,0 STARLINK-3914,1 52490U 22049AR  22312.26906898  .00001979  00000-0  14238-3 0  9992,2 52490  53.2192 114.3415 0001822  54.5018 305.6144 15.08848447 28764,6917.855,95.437,540.98,538.4590000000002,0.0
52490.0,STARLINK-3914,PAYLOAD,2022-11-08 17:35:09,15.08844234,0.000175,53.2197,112.2605,50.7445,309.3702,5.7744e-05,6.31e-06,0.0,0 STARLINK-3914,1 52490U 22049AR  22312.73275253  .00000631  00000-0  57744-4 0  9992,2 52490  53.2197 112.2605 0001750  50.7445 309.3702 15.08844234 28838,6917.8669999999975,95.437,540.943,538.5219999999998,0.0
52490.0,STARLINK-3914,PAYLOAD,2022-11-08 20:45:55,15.08846155,0.0001786999999999,53.2196,111.6662,51.1374,308.9778,4.896e-05,4.91e-06,0.0,0 STARLINK-3914,1 52490U 22049AR  22312.86523128  .00000491  00000-0  48960-4 0  9997,2 52490  53.2196 111.6662 0001787  51.1374 308.9778 15.08846155 28695,6917.861999999999,95.437,540.9630000000002,538.49,0.0
52490.0,STARLINK-3914,PAYLOAD,2022-11-09 14:15:12,15.08824686,0.0001813,53.2196,108.395,50.7791,309.3362,-5.4955e-05,-1.162e-05,0.0,0 STARLINK-3914,1 52490U 22049AR  22313.59389047 -.00001162  00000-0 -54955-4 0  9997,2 52490  53.2196 108.3950 0001813  50.7791 309.3362 15.08824686 28808,6917.927,95.439,541.0459999999998,538.538,0.0
52490.0,STARLINK-3914,PAYLOAD,2022-11-09 17:25:58,15.08825945,0.0001793,53.2198,107.8004,49.4194,310.6954,-4.259100000000001e-05,-9.66e-06,0.0,0 STARLINK-3914,1 52490U 22049AR  22313.72637044 -.00000966  00000-0 -42591-4 0  9999,2 52490  53.2198 107.8004 0001793  49.4194 310.6954 15.08825945 28983,6917.9230000000025,95.438,541.029,538.548,0.0
52490.0,STARLINK-3914,PAYLOAD,2022-11-10 12:30:35,15.0883422,0.0001793,53.2197,104.2317,60.6852,299.4319,1.3296e-05,-7.7e-07,0.0,0 STARLINK-3914,1 52490U 22049AR  22314.52124748 -.00000077  00000-0  13296-4 0  9992,2 52490  53.2197 104.2317 0001793  60.6852 299.4319 15.08834220 28947,6917.898,95.438,541.003,538.523,0.0
52490.0,STARLINK-3914,PAYLOAD,2022-11-10 17:16:45,15.08837772,0.0001747,53.2199,103.3399,62.7199,297.3971,5.6395e-05,6.1e-06,0.0,0 STARLINK-3914,1 52490U 22049AR  22314.71996534  .00000610  00000-0  56395-4 0  9992,2 52490  53.2199 103.3399 0001747  62.7199 297.3971 15.08837772 29133,6917.887,95.438,540.961,538.544,0.0
52490.0,STARLINK-3914,PAYLOAD,2022-11-11 04:24:26,15.08844048,0.0001793,53.2198,101.2585,50.2913,309.8237,5.5361e-05,5.93e-06,0.0,0 STARLINK-3914,1 52490U 22049AR  22315.18364239  .00000593  00000-0  55361-4 0  9997,2 52490  53.2198 101.2585 0001793  50.2913 309.8237 15.08844048 29041,6917.868,95.437,540.9730000000002,538.493,0.0
52490.0,STARLINK-3914,PAYLOAD,2022-11-11 13:56:46,15.08824225,0.00018,53.2194,99.4733,49.6638,310.4511,0.00016519,2.341e-05,0.0,0 STARLINK-3914,1 52490U 22049AR  22315.58109673  .00002341  00000-0  16519-3 0  9994,2 52490  53.2194  99.4733 0001800  49.6638 310.4511 15.08824225 29267,6917.929,95.439,541.039,538.548,0.0
52490.0,STARLINK-3914,PAYLOAD,2022-11-11 18:42:55,15.08831182,0.0001819,53.2194,98.5823,50.0541,310.0611,0.00017686,2.527e-05,0.0,0 STARLINK-3914,1 52490U 22049AR  22315.77981357  .00002527  00000-0  17686-3 0  9994,2 52490  53.2194  98.5823 0001819  50.0541 310.0611 15.08831182 29139,6917.906999999997,95.438,541.031,538.514,0.0
52490.0,STARLINK-3914,PAYLOAD,2022-11-12 04:15:14,15.08840578,0.0001798,53.2198,96.7981,50.2297,309.8854,0.00021922,3.203e-05,0.0,0 STARLINK-3914,1 52490U 22049AR  22316.17724949  .00003203  00000-0  21922-3 0  9991,2 52490  53.2198  96.7981 0001798  50.2297 309.8854 15.08840578 29352,6917.879,95.438,540.987,538.5,0.0
52490.0,STARLINK-3914,PAYLOAD,2022-11-12 13:47:32,15.08853148,0.0001857,53.2192,95.014,48.7053,311.4098,0.00026809,3.983e-05,0.0,0 STARLINK-3914,1 52490U 22049AR  22316.57468231  .00003983  00000-0  26809-3 0  9998,2 52490  53.2192  95.0140 0001857  48.7053 311.4098 15.08853148 29416,6917.84,95.437,540.99,538.4209999999998,0.0
52490.0,STARLINK-3914,PAYLOAD,2022-11-12 18:33:41,15.08861157,0.000183,53.219,94.1218,48.6935,311.4215,0.00043367,6.624e-05,0.0,0 STARLINK-3914,1 52490U 22049AR  22316.77339882  .00006624  00000-0  43367-3 0  9992,2 52490  53.2190  94.1218 0001830  48.6935 311.4215 15.08861157 29284,6917.816,95.436,540.947,538.415,0.0
52490.0,STARLINK-3914,PAYLOAD,2022-11-13 10:27:33,15.08845545,0.0001584,53.2188,91.1479,52.0747,308.0388,-9.7957e-05,-1.847e-05,0.0,0 STARLINK-3914,1 52490U 22049AR  22317.43579904 -.00001847  00000-0 -97957-4 0  9996,2 52490  53.2188  91.1479 0001584  52.0747 308.0388 15.08845545 29548,6917.863,95.437,540.8240000000002,538.633,0.0
52490.0,STARLINK-3914,PAYLOAD,2022-11-13 16:49:05,15.08846926,0.0001739,53.2191,89.9594,44.5927,315.5204,1.2891e-05,-8.3e-07,0.0,0 STARLINK-3914,1 52490U 22049AR  22317.70075835 -.00000083  00000-0  12891-4 0  9994,2 52490  53.2191  89.9594 0001739  44.5927 315.5204 15.08846926 29424,6917.859,95.437,540.927,538.521,0.0
52490.0,STARLINK-3914,PAYLOAD,2022-11-14 07:07:34,15.08838177,0.000188,53.2196,87.2847,44.9647,315.1497,0.00012721,1.737e-05,0.0,0 STARLINK-3914,1 52490U 22049AR  22318.29692427  .00001737  00000-0  12721-3 0  9998,2 52490  53.2196  87.2847 0001880  44.9647 315.1497 15.08838177 29677,6917.886,95.438,541.052,538.45,0.0
